{
  "generated_at": "2026-07-13T07:11:34Z",
  "source": "CelesTrak SATCAT gp.php?GROUP=active (HEAD cache, no fetch)",
  "schema_version": "1.0",
  "records": [
    {
      "name": "SWARM A",
      "norad_id": 39452,
      "intl_designator": "13067-261",
      "line1": "1 39452U 13067B   26186.60645932  .00013288  00000+0  22563-3 0  9990",
      "line2": "2 39452  87.3305  49.3943 0003221  96.2822 263.8807 15.51324002709104",
      "category": "science"
    },
    {
      "name": "SWARM C",
      "norad_id": 39453,
      "intl_designator": "13067-261",
      "line1": "1 39453U 13067C   26186.60636126  .00013459  00000+0  22856-3 0  9991",
      "line2": "2 39453  87.3305  47.9753 0003228  96.1845 263.9784 15.51323420709062",
      "category": "science"
    },
    {
      "name": "BRITE-CA1 (TORONTO)",
      "norad_id": 40020,
      "intl_designator": "14033-261",
      "line1": "1 40020U 14033L   26186.31477191  .00001360  00000+0  21142-3 0  9995",
      "line2": "2 40020  97.9762 314.9109 0077744 218.0903 141.4794 14.72710063644888",
      "category": "science"
    },
    {
      "name": "OCO 2",
      "norad_id": 40059,
      "intl_designator": "14035-261",
      "line1": "1 40059U 14035A   26186.35282896  .00000587  00000+0  14017-3 0  9992",
      "line2": "2 40059  98.2019 127.3696 0001475  81.7987 278.3379 14.57127428638692",
      "category": "science"
    },
    {
      "name": "BRITE-PL2 (HEWELIUSZ)",
      "norad_id": 40119,
      "intl_designator": "14049-261",
      "line1": "1 40119U 14049B   26186.31517075  .00003014  00000+0  28293-3 0  9999",
      "line2": "2 40119  97.9110 298.4567 0014937  53.6475 306.6120 14.94662781644155",
      "category": "science"
    },
    {
      "name": "MMS 1",
      "norad_id": 40482,
      "intl_designator": "15011-261",
      "line1": "1 40482U 15011A   26186.58336806 -.00000732  00000+0  00000+0 0  9999",
      "line2": "2 40482  72.5882 348.5298 8326712 167.8976  15.1420  0.28292376  1399",
      "category": "science"
    },
    {
      "name": "MMS 2",
      "norad_id": 40483,
      "intl_designator": "15011-261",
      "line1": "1 40483U 15011B   26186.58336806 -.00000733  00000+0  00000+0 0  9991",
      "line2": "2 40483  72.5927 348.5286 8329688 167.9048  15.1258  0.28285272  1399",
      "category": "science"
    },
    {
      "name": "MMS 3",
      "norad_id": 40484,
      "intl_designator": "15011-261",
      "line1": "1 40484U 15011C   26186.58336806 -.00000732  00000+0  00000+0 0  9991",
      "line2": "2 40484  72.5923 348.5406 8328206 167.9097  15.0998  0.28286922  1392",
      "category": "science"
    },
    {
      "name": "MMS 4",
      "norad_id": 40485,
      "intl_designator": "15011-261",
      "line1": "1 40485U 15011D   26186.58336806 -.00000732  00000+0  00000+0 0  9992",
      "line2": "2 40485  72.5880 348.5241 8327832 167.9182  15.0990  0.28292051  1393",
      "category": "science"
    },
    {
      "name": "ASTROSAT",
      "norad_id": 40930,
      "intl_designator": "15052-261",
      "line1": "1 40930U 15052A   26185.98602854  .00002011  00000+0  16263-3 0  9997",
      "line2": "2 40930   5.9981  27.2244 0008583 288.2133  71.7061 14.82541064582475",
      "category": "science"
    },
    {
      "name": "DAMPE",
      "norad_id": 41173,
      "intl_designator": "15078-261",
      "line1": "1 41173U 15078A   26186.60189916  .00001935  00000+0  67431-4 0  9992",
      "line2": "2 41173  97.4559 192.1598 0012633  18.8985 341.2722 15.30836239587366",
      "category": "science"
    },
    {
      "name": "PISAT",
      "norad_id": 41784,
      "intl_designator": "16059-261",
      "line1": "1 41784U 16059B   26186.46694014  .00001282  00000+0  22510-3 0  9997",
      "line2": "2 41784  97.8184 186.1345 0029856 144.6576 215.6617 14.69018347522420",
      "category": "science"
    },
    {
      "name": "HXMT (HUIYAN)",
      "norad_id": 42758,
      "intl_designator": "17034-261",
      "line1": "1 42758U 17034A   26186.61735291  .00005372  00000+0  26262-3 0  9995",
      "line2": "2 42758  43.0141  80.4069 0032793 262.4401  97.2722 15.18627011500467",
      "category": "science"
    },
    {
      "name": "FLYING LAPTOP",
      "norad_id": 42831,
      "intl_designator": "17042-261",
      "line1": "1 42831U 17042G   26186.64897748  .00004016  00000+0  31558-3 0  9993",
      "line2": "2 42831  97.4777 341.4815 0019960  62.8836 297.4422 15.01269508489227",
      "category": "science"
    },
    {
      "name": "ZHANGHENG 1-01 (CSES-1)",
      "norad_id": 43194,
      "intl_designator": "18015-261",
      "line1": "1 43194U 18015C   26186.62633234  .00008135  00000+0  36777-3 0  9997",
      "line2": "2 43194  97.6890 352.6541 0017984 198.8740 161.1830 15.21069260467441",
      "category": "science"
    },
    {
      "name": "SALSAT",
      "norad_id": 46495,
      "intl_designator": "20068-261",
      "line1": "1 46495U 20068K   26186.45874269  .00010448  00000+0  36136-3 0  9990",
      "line2": "2 46495  97.8857 190.6390 0008285 230.3359 129.7150 15.30074171318152",
      "category": "science"
    },
    {
      "name": "IXPE",
      "norad_id": 49954,
      "intl_designator": "21121-261",
      "line1": "1 49954U 21121A   26186.66670139  .00022430  00000+0  12644-2 0  9998",
      "line2": "2 49954   0.2296 177.6943 0006980 355.6194 274.9009 15.10439206  5798",
      "category": "science"
    },
    {
      "name": "SMILE",
      "norad_id": 69123,
      "intl_designator": "26109-261",
      "line1": "1 69123U 26109A   26158.38327019 -.00000041  00000+0 -36778-3 0  9994",
      "line2": "2 69123  69.9787 209.3069 3310191 288.5544  45.7342  7.54049028  2480",
      "category": "science"
    }
  ]
}