OBJECT_NAME,OBJECT_ID,EPOCH,MEAN_MOTION,ECCENTRICITY,INCLINATION,RA_OF_ASC_NODE,ARG_OF_PERICENTER,MEAN_ANOMALY,EPHEMERIS_TYPE,CLASSIFICATION_TYPE,NORAD_CAT_ID,ELEMENT_SET_NO,REV_AT_EPOCH,BSTAR,MEAN_MOTION_DOT,MEAN_MOTION_DDOT
SWARM A,2013-067B,2026-07-05T14:33:18.085248,15.51324002,.00032214,87.3305,49.3943,96.2822,263.8807,0,U,39452,999,70910,.22563339E-3,.13288E-3,0
SWARM C,2013-067C,2026-07-05T14:33:09.612864,15.51323420,.00032281,87.3305,47.9753,96.1845,263.9784,0,U,39453,999,70906,.22856463E-3,.13459E-3,0
BRITE-CA1 (TORONTO),2014-033L,2026-07-05T07:33:16.293024,14.72710063,.0077744,97.9762,314.9109,218.0903,141.4794,0,U,40020,999,64488,.21142E-3,.136E-4,0
OCO 2,2014-035A,2026-07-05T08:28:04.422144,14.57127428,.0001475,98.2019,127.3696,81.7987,278.3379,0,U,40059,999,63869,.14017E-3,.587E-5,0
BRITE-PL2 (HEWELIUSZ),2014-049B,2026-07-05T07:33:50.752800,14.94662781,.0014937,97.9110,298.4567,53.6475,306.6120,0,U,40119,999,64415,.28293E-3,.3014E-4,0
MMS 1,2015-011A,2026-07-05T14:00:03.000384,0.28292376,.8326712,72.5882,348.5298,167.8976,15.1420,0,U,40482,999,139,0,-.732E-5,0
MMS 2,2015-011B,2026-07-05T14:00:03.000384,0.28285272,.8329688,72.5927,348.5286,167.9048,15.1258,0,U,40483,999,139,0,-.733E-5,0
MMS 3,2015-011C,2026-07-05T14:00:03.000384,0.28286922,.8328206,72.5923,348.5406,167.9097,15.0998,0,U,40484,999,139,0,-.732E-5,0
MMS 4,2015-011D,2026-07-05T14:00:03.000384,0.28292051,.8327832,72.5880,348.5241,167.9182,15.0990,0,U,40485,999,139,0,-.732E-5,0
ASTROSAT,2015-052A,2026-07-04T23:39:52.865856,14.82541064,.0008583,5.9981,27.2244,288.2133,71.7061,0,U,40930,999,58247,.16263E-3,.2011E-4,0
DAMPE,2015-078A,2026-07-05T14:26:44.087424,15.30836239,.00126339,97.4559,192.1598,18.8985,341.2722,0,U,41173,999,58736,.67430792E-4,.1935E-4,0
PISAT,2016-059B,2026-07-05T11:12:23.628096,14.69018347,.0029856,97.8184,186.1345,144.6576,215.6617,0,U,41784,999,52242,.2251E-3,.1282E-4,0
HXMT (HUIYAN),2017-034A,2026-07-05T14:48:59.291424,15.18627011,.00327932,43.0141,80.4069,262.4401,97.2722,0,U,42758,999,50046,.26261866E-3,.5372E-4,0
FLYING LAPTOP,2017-042G,2026-07-05T15:34:31.654272,15.01269508,.00199601,97.4777,341.4815,62.8836,297.4422,0,U,42831,999,48922,.31558037E-3,.4016E-4,0
ZHANGHENG 1-01 (CSES-1),2018-015C,2026-07-05T15:01:55.114176,15.21069260,.00179847,97.6890,352.6541,198.8740,161.1830,0,U,43194,999,46744,.36777122E-3,.8135E-4,0
SALSAT,2020-068K,2026-07-05T11:00:35.368416,15.30074171,.0008285,97.8857,190.6390,230.3359,129.7150,0,U,46495,999,31815,.36136E-3,.10448E-3,0
IXPE,2021-121A,2026-07-05T16:00:03.000096,15.10439206,.00069809,0.2296,177.6943,355.6194,274.9009,0,U,49954,999,579,.1264421E-2,.2243E-3,0
SMILE,2026-109A,2026-06-07T09:11:54.544416,7.54049028,.3310191,69.9787,209.3069,288.5544,45.7342,0,U,69123,999,248,-.36778157E-3,-.41E-6,0
